ORBCOMM FM103           
1 40091U 14040F   25338.23467606  .00001593  00000+0  37584-3 0  9995
2 40091  47.0060 294.5536 0002305 323.5983  36.4746 14.58512224588926
ORBCOMM FM114           
1 41179U 15081A   25338.04613587  .00001159  00000+0  28318-3 0  9992
2 41179  47.0014 204.4029 0001774  35.6826 324.4178 14.58544162529263
ORBCOMM FM119           
1 41180U 15081B   25338.11031116  .00001533  00000+0  36337-3 0  9990
2 41180  46.9993 113.4563 0000670 151.5673 208.5250 14.58477333530522
ORBCOMM FM105           
1 41181U 15081C   25338.14442593  .00000615  00000+0  21759-3 0  9991
2 41181  46.9999 134.8407 0001579 344.5836  15.4996 14.45391537525339
ORBCOMM FM110           
1 41182U 15081D   25337.96768400  .00001510  00000+0  35783-3 0  9996
2 41182  47.0011 204.2797 0002847 257.9509 102.1058 14.58554965529128
ORBCOMM FM118           
1 41183U 15081E   25338.07063754  .00001246  00000+0  30162-3 0  9992
2 41183  47.0027 204.0892 0002872 219.8598 140.2077 14.58555175529244
ORBCOMM FM112           
1 41184U 15081F   25337.86783949  .00002385  00000+0  54407-3 0  9997
2 41184  46.9979 113.5857 0001044  13.0547 347.0366 14.58553386530435
ORBCOMM FM113           
1 41185U 15081G   25337.43412276  .00001553  00000+0  36640-3 0  9998
2 41185  46.9996 115.9905 0000453  47.7870 312.3055 14.58616147530357
